start=new Date('2022-02-24T00:00:00.000Z').valueOf();
sats=[{"OBJECT_ID":"2021-021S","TIME_SYSTEM":"UTC","ECCENTRICITY":"0.00019310","LAUNCH_DATE":"2021-03-14","FILE":"3317219","INCLINATION":"53.0549","MEAN_ELEMENT_THEORY":"SGP4","GP_ID":"196784888","ELEMENT_SET_NO":"999","CENTER_NAME":"EARTH","REF_FRAME":"TEME","MEAN_ANOMALY":"309.4465","DECAY_DATE":null,"COUNTRY_CODE":"US","OBJECT_TYPE":"PAYLOAD","EPHEMERIS_TYPE":"0","OBJECT_NAME":"STARLINK-2332","NORAD_CAT_ID":"47876","PERIAPSIS":"545.903","REV_AT_EPOCH":"5388","CLASSIFICATION_TYPE":"U","ARG_OF_PERICENTER":"50.6695","SEMIMAJOR_AXIS":"6925.375","BSTAR":"0.00007286600000","PERIOD":"95.593","EPOCH":"2022-02-23T16:59:04.299360","MEAN_MOTION_DOT":"0.00000804","MEAN_MOTION_DDOT":"0.0000000000000","TLE_LINE1":"1 47876U 21021S   22054.70768865  .00000804  00000-0  72866-4 0  9993","MEAN_MOTION":"15.06391293","RA_OF_ASC_NODE":"53.0807","SITE":"AFETR","RCS_SIZE":"LARGE","TLE_LINE2":"2 47876  53.0549  53.0807 0001931  50.6695 309.4465 15.06391293 53882","APOAPSIS":"548.578"},{"CLASSIFICATION_TYPE":"U","ARG_OF_PERICENTER":"57.5493","REV_AT_EPOCH":"5387","PERIAPSIS":"546.001","PERIOD":"95.593","BSTAR":"-0.00005124400000","SEMIMAJOR_AXIS":"6925.378","TLE_LINE1":"1 47877U 21021T   22054.72242982 -.00001045  00000-0 -51244-4 0  9990","MEAN_MOTION_DDOT":"0.0000000000000","MEAN_MOTION_DOT":"-0.00001045","EPOCH":"2022-02-23T17:20:17.936448","APOAPSIS":"548.486","TLE_LINE2":"2 47877  53.0572  53.0075 0001794  57.5493 302.5669 15.06390283 53872","RCS_SIZE":"LARGE","SITE":"AFETR","RA_OF_ASC_NODE":"53.0075","MEAN_MOTION":"15.06390283","ECCENTRICITY":"0.00017940","TIME_SYSTEM":"UTC","OBJECT_ID":"2021-021T","ELEMENT_SET_NO":"999","GP_ID":"196785138","MEAN_ELEMENT_THEORY":"SGP4","FILE":"3317219","INCLINATION":"53.0572","LAUNCH_DATE":"2021-03-14","MEAN_ANOMALY":"302.5669","REF_FRAME":"TEME","CENTER_NAME":"EARTH","NORAD_CAT_ID":"47877","OBJECT_NAME":"STARLINK-2333","COUNTRY_CODE":"US","OBJECT_TYPE":"PAYLOAD","EPHEMERIS_TYPE":"0","DECAY_DATE":null},{"TIME_SYSTEM":"UTC","OBJECT_ID":"2021-021U","ECCENTRICITY":"0.00019870","LAUNCH_DATE":"2021-03-14","FILE":"3316306","INCLINATION":"53.0551","GP_ID":"196742396","ELEMENT_SET_NO":"999","MEAN_ELEMENT_THEORY":"SGP4","CENTER_NAME":"EARTH","REF_FRAME":"TEME","MEAN_ANOMALY":"310.6261","DECAY_DATE":null,"COUNTRY_CODE":"US","OBJECT_TYPE":"PAYLOAD","EPHEMERIS_TYPE":"0","OBJECT_NAME":"STARLINK-2335","NORAD_CAT_ID":"47878","PERIAPSIS":"545.813","REV_AT_EPOCH":"5363","ARG_OF_PERICENTER":"49.4901","CLASSIFICATION_TYPE":"U","BSTAR":"0.00001330700000","SEMIMAJOR_AXIS":"6925.324","PERIOD":"95.592","MEAN_MOTION_DOT":"-0.00000083","EPOCH":"2022-02-23T11:14:03.065856","MEAN_MOTION_DDOT":"0.0000000000000","TLE_LINE1":"1 47878U 21021U   22054.46809104 -.00000083  00000-0  13307-4 0  9995","MEAN_MOTION":"15.06408036","RA_OF_ASC_NODE":"54.1488","RCS_SIZE":"LARGE","SITE":"AFETR","APOAPSIS":"548.565","TLE_LINE2":"2 47878  53.0551  54.1488 0001987  49.4901 310.6261 15.06408036 53636"},{"EPOCH":"2022-02-23T17:31:34.206528","MEAN_MOTION_DOT":"-0.00000778","TLE_LINE1":"1 47879U 21021V   22054.73025702 -.00000778  00000-0 -33315-4 0  9993","MEAN_MOTION_DDOT":"0.0000000000000","RA_OF_ASC_NODE":"67.9802","MEAN_MOTION":"15.06396272","APOAPSIS":"548.535","TLE_LINE2":"2 47879  53.0553  67.9802 0001891  53.5239 306.5924 15.06396272 53846","RCS_SIZE":"LARGE","SITE":"AFETR","PERIAPSIS":"545.915","ARG_OF_PERICENTER":"53.5239","CLASSIFICATION_TYPE":"U","REV_AT_EPOCH":"5384","PERIOD":"95.592","BSTAR":"-0.00003331500000","SEMIMAJOR_AXIS":"6925.360","REF_FRAME":"TEME","CENTER_NAME":"EARTH","MEAN_ANOMALY":"306.5924","COUNTRY_CODE":"US","OBJECT_TYPE":"PAYLOAD","EPHEMERIS_TYPE":"0","DECAY_DATE":null,"NORAD_CAT_ID":"47879","OBJECT_NAME":"STARLINK-2336","ECCENTRICITY":"0.00018910","TIME_SYSTEM":"UTC","OBJECT_ID":"2021-021V","INCLINATION":"53.0553","FILE":"3317219","LAUNCH_DATE":"2021-03-14","GP_ID":"196786641","ELEMENT_SET_NO":"999","MEAN_ELEMENT_THEORY":"SGP4"},{"MEAN_ANOMALY":"319.3429","REF_FRAME":"TEME","CENTER_NAME":"EARTH","NORAD_CAT_ID":"47880","OBJECT_NAME":"STARLINK-2337","COUNTRY_CODE":"US","EPHEMERIS_TYPE":"0","OBJECT_TYPE":"PAYLOAD","DECAY_DATE":null,"ECCENTRICITY":"0.00021970","OBJECT_ID":"2021-021W","TIME_SYSTEM":"UTC","MEAN_ELEMENT_THEORY":"SGP4","GP_ID":"196742898","ELEMENT_SET_NO":"999","FILE":"3316306","INCLINATION":"53.0565","LAUNCH_DATE":"2021-03-14","TLE_LINE1":"1 47880U 21021W   22054.43768534  .00001075  00000-0  91061-4 0  9990","MEAN_MOTION_DDOT":"0.0000000000000","EPOCH":"2022-02-23T10:30:16.013376","MEAN_MOTION_DOT":"0.00001075","TLE_LINE2":"2 47880  53.0565  64.2592 0002197  40.7724 319.3429 15.06404032 53693","APOAPSIS":"548.723","SITE":"AFETR","RCS_SIZE":"LARGE","RA_OF_ASC_NODE":"64.2592","MEAN_MOTION":"15.06404032","ARG_OF_PERICENTER":"40.7724","CLASSIFICATION_TYPE":"U","REV_AT_EPOCH":"5369","PERIAPSIS":"545.680","PERIOD":"95.592","SEMIMAJOR_AXIS":"6925.336","BSTAR":"0.00009106100000"},{"PERIAPSIS":"546.287","REV_AT_EPOCH":"5370","CLASSIFICATION_TYPE":"U","ARG_OF_PERICENTER":"70.3269","SEMIMAJOR_AXIS":"6925.366","BSTAR":"-0.00006018500000","PERIOD":"95.592","EPOCH":"2022-02-23T17:29:35.147328","MEAN_MOTION_DOT":"-0.00001178","MEAN_MOTION_DDOT":"0.0000000000000","TLE_LINE1":"1 47881U 21021X   22054.72887902 -.00001178  00000-0 -60185-4 0  9993","MEAN_MOTION":"15.06394398","RA_OF_ASC_NODE":"62.9742","SITE":"AFETR","RCS_SIZE":"LARGE","TLE_LINE2":"2 47881  53.0588  62.9742 0001362  70.3269 289.7867 15.06394398 53708","APOAPSIS":"548.174","OBJECT_ID":"2021-021X","TIME_SYSTEM":"UTC","ECCENTRICITY":"0.00013620","LAUNCH_DATE":"2021-03-14","INCLINATION":"53.0588","FILE":"3317219","MEAN_ELEMENT_THEORY":"SGP4","ELEMENT_SET_NO":"999","GP_ID":"196785639","CENTER_NAME":"EARTH","REF_FRAME":"TEME","MEAN_ANOMALY":"289.7867","DECAY_DATE":null,"COUNTRY_CODE":"US","OBJECT_TYPE":"PAYLOAD","EPHEMERIS_TYPE":"0","OBJECT_NAME":"STARLINK-2339","NORAD_CAT_ID":"47881"},{"FILE":"3317219","INCLINATION":"53.0559","LAUNCH_DATE":"2021-03-14","MEAN_ELEMENT_THEORY":"SGP4","GP_ID":"196786391","ELEMENT_SET_NO":"999","ECCENTRICITY":"0.00017720","OBJECT_ID":"2021-021Y","TIME_SYSTEM":"UTC","OBJECT_TYPE":"PAYLOAD","COUNTRY_CODE":"US","EPHEMERIS_TYPE":"0","DECAY_DATE":null,"NORAD_CAT_ID":"47882","OBJECT_NAME":"STARLINK-2340","REF_FRAME":"TEME","CENTER_NAME":"EARTH","MEAN_ANOMALY":"304.5386","PERIOD":"95.593","SEMIMAJOR_AXIS":"6925.383","BSTAR":"0.00008919900000","PERIAPSIS":"546.021","CLASSIFICATION_TYPE":"U","ARG_OF_PERICENTER":"55.5770","REV_AT_EPOCH":"5404","RA_OF_ASC_NODE":"53.0808","MEAN_MOTION":"15.06388844","TLE_LINE2":"2 47882  53.0559  53.0808 0001772  55.5770 304.5386 15.06388844 54047","APOAPSIS":"548.475","SITE":"AFETR","RCS_SIZE":"LARGE","MEAN_MOTION_DOT":"0.00001047","EPOCH":"2022-02-23T16:53:45.816000","TLE_LINE1":"1 47882U 21021Y   22054.70400250  .00001047  00000-0  89199-4 0  9998","MEAN_MOTION_DDOT":"0.0000000000000"},{"CENTER_NAME":"EARTH","REF_FRAME":"TEME","MEAN_ANOMALY":"301.1342","DECAY_DATE":null,"COUNTRY_CODE":"US","EPHEMERIS_TYPE":"0","OBJECT_TYPE":"PAYLOAD","OBJECT_NAME":"STARLINK-2342","NORAD_CAT_ID":"47883","TIME_SYSTEM":"UTC","OBJECT_ID":"2021-021Z","ECCENTRICITY":"0.00015440","LAUNCH_DATE":"2021-03-14","FILE":"3316306","INCLINATION":"53.0538","ELEMENT_SET_NO":"999","GP_ID":"196742147","MEAN_ELEMENT_THEORY":"SGP4","EPOCH":"2022-02-23T11:26:40.176096","MEAN_MOTION_DOT":"0.00001816","MEAN_MOTION_DDOT":"0.0000000000000","TLE_LINE1":"1 47883U 21021Z   22054.47685389  .00001816  00000-0  14081-3 0  9992","MEAN_MOTION":"15.06395312","RA_OF_ASC_NODE":"59.1105","RCS_SIZE":"LARGE","SITE":"AFETR","APOAPSIS":"548.297","TLE_LINE2":"2 47883  53.0538  59.1105 0001544  58.9798 301.1342 15.06395312 53947","PERIAPSIS":"546.159","REV_AT_EPOCH":"5394","ARG_OF_PERICENTER":"58.9798","CLASSIFICATION_TYPE":"U","BSTAR":"0.00014081000000","SEMIMAJOR_AXIS":"6925.363","PERIOD":"95.592"},{"MEAN_ANOMALY":"299.2136","REF_FRAME":"TEME","CENTER_NAME":"EARTH","NORAD_CAT_ID":"47884","OBJECT_NAME":"STARLINK-2343","COUNTRY_CODE":"US","EPHEMERIS_TYPE":"0","OBJECT_TYPE":"PAYLOAD","DECAY_DATE":null,"ECCENTRICITY":"0.00015490","TIME_SYSTEM":"UTC","OBJECT_ID":"2021-021AA","GP_ID":"196784889","ELEMENT_SET_NO":"999","MEAN_ELEMENT_THEORY":"SGP4","INCLINATION":"53.0561","FILE":"3317219","LAUNCH_DATE":"2021-03-14","TLE_LINE1":"1 47884U 21021AA  22054.72519308  .00000908  00000-0  79850-4 0  9995","MEAN_MOTION_DDOT":"0.0000000000000","MEAN_MOTION_DOT":"0.00000908","EPOCH":"2022-02-23T17:24:16.682112","APOAPSIS":"548.299","TLE_LINE2":"2 47884  53.0561  62.9908 0001549  60.9008 299.2136 15.06396002 53731","RCS_SIZE":"LARGE","SITE":"AFETR","RA_OF_ASC_NODE":"62.9908","MEAN_MOTION":"15.06396002","ARG_OF_PERICENTER":"60.9008","CLASSIFICATION_TYPE":"U","REV_AT_EPOCH":"5373","PERIAPSIS":"546.153","PERIOD":"95.592","BSTAR":"0.00007985000000","SEMIMAJOR_AXIS":"6925.361"},{"PERIAPSIS":"545.997","REV_AT_EPOCH":"5315","CLASSIFICATION_TYPE":"U","ARG_OF_PERICENTER":"61.5740","SEMIMAJOR_AXIS":"6925.369","BSTAR":"-0.00001122800000","PERIOD":"95.593","MEAN_MOTION_DOT":"-0.00000449","EPOCH":"2022-02-23T12:29:02.391648","MEAN_MOTION_DDOT":"0.0000000000000","TLE_LINE1":"1 47885U 21021AB  22054.52016657 -.00000449  00000-0 -11228-4 0  9990","MEAN_MOTION":"15.06393284","RA_OF_ASC_NODE":"68.9044","SITE":"AFETR","RCS_SIZE":"LARGE","TLE_LINE2":"2 47885  53.0546  68.9044 0001787  61.5740 298.5429 15.06393284 53158","APOAPSIS":"548.472","OBJECT_ID":"2021-021AB","TIME_SYSTEM":"UTC","ECCENTRICITY":"0.00017870","LAUNCH_DATE":"2021-03-14","FILE":"3316073","INCLINATION":"53.0546","MEAN_ELEMENT_THEORY":"SGP4","GP_ID":"196716692","ELEMENT_SET_NO":"999","CENTER_NAME":"EARTH","REF_FRAME":"TEME","MEAN_ANOMALY":"298.5429","DECAY_DATE":null,"COUNTRY_CODE":"US","EPHEMERIS_TYPE":"0","OBJECT_TYPE":"PAYLOAD","OBJECT_NAME":"STARLINK-2344","NORAD_CAT_ID":"47885"}];
